COMMENT,ORIGINATOR,NORAD_CAT_ID,OBJECT_NAME,OBJECT_TYPE,CLASSIFICATION_TYPE,INTLDES,EPOCH,EPOCH_MICROSECONDS,MEAN_MOTION,ECCENTRICITY,INCLINATION,RA_OF_ASC_NODE,ARG_OF_PERICENTER,MEAN_ANOMALY,EPHEMERIS_TYPE,ELEMENT_SET_NO,REV_AT_EPOCH,BSTAR,MEAN_MOTION_DOT,MEAN_MOTION_DDOT,FILE,TLE_LINE0,TLE_LINE1,TLE_LINE2,OBJECT_ID,OBJECT_NUMBER,SEMIMAJOR_AXIS,PERIOD,APOGEE,PERIGEE,DECAYED
GENERATED VIA SPACETRACK.ORG API,18 SPCS,4084,SL-8 DEB,DEBRIS,U,69070C,2023-03-30 10:33:28,201536,14.46318092,0.0022015,74.0701,345.6918,181.5774,178.5319,0,999,82586,0.0001047,3.5e-06,0,3875286,0 SL-8 DEB,1  4084U 69070C   23089.43990974  .00000350  00000-0  10470-3 0  9998,2  4084  74.0701 345.6918 0022015 181.5774 178.5319 14.46318092825867,1969-070C,4084,7115.837,99.563,753.367,722.036,0
GENERATED VIA SPACETRACK.ORG API,18 SPCS,4084,SL-8 DEB,DEBRIS,U,69070C,2023-03-30 18:51:29,356416,14.46318369,0.0022003,74.07,345.0475,180.8643,179.2481,0,999,82593,0.00010436,3.49e-06,0,3875726,0 SL-8 DEB,1 04084U 69070C   23089.78575644  .00000349  00000-0  10436-3 0  9999,2 04084  74.0700 345.0475 0022003 180.8643 179.2481 14.46318369825935,1969-070C,4084,7115.836,99.563,753.358,722.044,0
GENERATED VIA SPACETRACK.ORG API,18 SPCS,4084,SL-8 DEB,DEBRIS,U,69070C,2023-04-01 04:03:33,971616,14.4631917,0.0021939,74.0699,342.4705,177.9179,182.2075,0,999,82613,9.9285e-05,3.3e-06,0,3877270,0 SL-8 DEB,1 04084U 69070C   23091.16914319  .00000330  00000-0  99285-4 0  9990,2 04084  74.0699 342.4705 0021939 177.9179 182.2075 14.46319170826134,1969-070C,4084,7115.833,99.563,753.309,722.087,0
GENERATED VIA SPACETRACK.ORG API,18 SPCS,4084,SL-8 DEB,DEBRIS,U,69070C,2023-04-01 19:00:00,18432,14.46319483,0.0021916,74.0698,341.3108,176.5822,183.549,0,999,82620,9.2307e-05,3.05e-06,0,3877404,0 SL-8 DEB,1  4084U 69070C   23091.79166688  .00000305  00000-0  92307-4 0  9997,2  4084  74.0698 341.3108 0021916 176.5822 183.5490 14.46319483826203,1969-070C,4084,7115.832,99.563,753.292,722.102,0
GENERATED VIA SPACETRACK.ORG API,18 SPCS,4084,SL-8 DEB,DEBRIS,U,69070C,2023-04-01 22:19:12,471744,14.46319565,0.0021907,74.0698,341.0531,176.2961,183.8364,0,999,82624,9.2748e-05,3.07e-06,0,3877516,0 SL-8 DEB,1 04084U 69070C   23091.93000546  .00000307  00000-0  92748-4 0  9994,2 04084  74.0698 341.0531 0021907 176.2961 183.8364 14.46319565826249,1969-070C,4084,7115.832,99.563,753.285,722.108,0
GENERATED VIA SPACETRACK.ORG API,18 SPCS,4084,SL-8 DEB,DEBRIS,U,69070C,2023-04-02 03:18:01,152576,14.46319729,0.0021896,74.0698,340.6665,175.859,184.2754,0,999,82627,9.4509e-05,3.13e-06,0,3878126,0 SL-8 DEB,1 04084U 69070C   23092.13751334  .00000313  00000-0  94509-4 0  9999,2 04084  74.0698 340.6665 0021896 175.8590 184.2754 14.46319729826275,1969-070C,4084,7115.831,99.563,753.277,722.115,0
GENERATED VIA SPACETRACK.ORG API,18 SPCS,4084,SL-8 DEB,DEBRIS,U,69070C,2023-04-02 19:54:03,409632,14.46319953,0.0021874,74.0697,339.378,174.3497,185.7912,0,999,82637,8.3e-05,2.72e-06,0,3878419,0 SL-8 DEB,1 04084U 69070C   23092.82920613  .00000272  00000-0  83000-4 0  9991,2 04084  74.0697 339.3780 0021874 174.3497 185.7912 14.46319953826375,1969-070C,4084,7115.83,99.563,753.261,722.13,0
GENERATED VIA SPACETRACK.ORG API,18 SPCS,4084,SL-8 DEB,DEBRIS,U,69070C,2023-04-03 02:32:28,306752,14.46320121,0.0021858,74.0696,338.8625,173.7659,186.3776,0,999,82641,8.3548e-05,2.74e-06,0,3879059,0 SL-8 DEB,1 04084U 69070C   23093.10588318  .00000274  00000-0  83548-4 0  9994,2 04084  74.0696 338.8625 0021858 173.7659 186.3776 14.46320121826410,1969-070C,4084,7115.83,99.563,753.249,722.141,0
GENERATED VIA SPACETRACK.ORG API,18 SPCS,4084,SL-8 DEB,DEBRIS,U,69070C,2023-04-03 22:27:42,970464,14.46320648,0.0021825,74.0694,337.3162,172.0017,188.1494,0,999,82653,8.242e-05,2.7e-06,0,3879321,0 SL-8 DEB,1 04084U 69070C   23093.93591401  .00000270  00000-0  82420-4 0  9996,2 04084  74.0694 337.3162 0021825 172.0017 188.1494 14.46320648826536,1969-070C,4084,7115.828,99.563,753.223,722.163,0
GENERATED VIA SPACETRACK.ORG API,18 SPCS,4084,SL-8 DEB,DEBRIS,U,69070C,2023-04-04 03:26:31,633152,14.46320825,0.0021813,74.0694,336.9296,171.5537,188.5993,0,999,82654,8.4182e-05,2.76e-06,0,3879526,0 SL-8 DEB,1  4084U 69070C   23094.14342168  .00000276  00000-0  84182-4 0  9997,2  4084  74.0694 336.9296 0021813 171.5537 188.5993 14.46320825826543,1969-070C,4084,7115.828,99.563,753.214,722.171,0
GENERATED VIA SPACETRACK.ORG API,18 SPCS,4084,SL-8 DEB,DEBRIS,U,69070C,2023-04-04 03:26:31,633152,14.46320825,0.0021813,74.0694,336.9296,171.5537,188.5993,0,999,82656,8.4182e-05,2.76e-06,0,3879974,0 SL-8 DEB,1 04084U 69070C   23094.14342168  .00000276  00000-0  84182-4 0  9997,2 04084  74.0694 336.9296 0021813 171.5537 188.5993 14.46320825826565,1969-070C,4084,7115.828,99.563,753.214,722.171,0
GENERATED VIA SPACETRACK.ORG API,18 SPCS,4084,SL-8 DEB,DEBRIS,U,69070C,2023-04-05 02:40:58,709568,14.46321296,0.0021775,74.0691,335.1255,169.4663,190.6956,0,999,82670,7.7055e-05,2.5e-06,0,3880853,0 SL-8 DEB,1 04084U 69070C   23095.11179062  .00000250  00000-0  77055-4 0  9999,2 04084  74.0691 335.1255 0021775 169.4663 190.6956 14.46321296826703,1969-070C,4084,7115.826,99.563,753.186,722.196,0
GENERATED VIA SPACETRACK.ORG API,18 SPCS,4084,SL-8 DEB,DEBRIS,U,69070C,2023-04-05 22:36:13,318848,14.46321675,0.0021741,74.069,333.5791,167.7087,192.4606,0,999,82682,7.1662e-05,2.31e-06,0,3881153,0 SL-8 DEB,1 04084U 69070C   23095.94182082  .00000231  00000-0  71662-4 0  9993,2 04084  74.0690 333.5791 0021741 167.7087 192.4606 14.46321675826829,1969-070C,4084,7115.825,99.563,753.16,722.219,0
GENERATED VIA SPACETRACK.ORG API,18 SPCS,4084,SL-8 DEB,DEBRIS,U,69070C,2023-04-06 01:55:25,752288,14.46321748,0.0021733,74.0689,333.3214,167.4076,192.7631,0,999,82684,7.1014e-05,2.29e-06,0,3881771,0 SL-8 DEB,1 04084U 69070C   23096.08015917  .00000229  00000-0  71014-4 0  9999,2 04084  74.0689 333.3214 0021733 167.4076 192.7631 14.46321748826845,1969-070C,4084,7115.825,99.563,753.154,722.225,0
GENERATED VIA SPACETRACK.ORG API,18 SPCS,4084,SL-8 DEB,DEBRIS,U,69070C,2023-04-06 21:50:40,336512,14.46322108,0.00217,74.0688,331.775,165.6324,194.5457,0,999,82694,6.5181e-05,2.08e-06,0,3881907,0 SL-8 DEB,1  4084U 69070C   23096.91018908  .00000208  00000-0  65181-4 0  9999,2  4084  74.0688 331.7750 0021700 165.6324 194.5457 14.46322108826949,1969-070C,4084,7115.823,99.563,753.13,722.247,0
GENERATED VIA SPACETRACK.ORG API,18 SPCS,4084,SL-8 DEB,DEBRIS,U,69070C,2023-04-06 21:50:40,336512,14.46322108,0.00217,74.0688,331.775,165.6324,194.5457,0,999,82696,6.5181e-05,2.08e-06,0,3882049,0 SL-8 DEB,1 04084U 69070C   23096.91018908  .00000208  00000-0  65181-4 0  9999,2 04084  74.0688 331.7750 0021700 165.6324 194.5457 14.46322108826961,1969-070C,4084,7115.823,99.563,753.13,722.247,0
GENERATED VIA SPACETRACK.ORG API,18 SPCS,4084,SL-8 DEB,DEBRIS,U,69070C,2023-04-07 14:26:42,475200,14.46322538,0.0021671,74.0686,330.4864,164.125,196.0592,0,999,82706,6.66e-05,2.13e-06,0,3882626,0 SL-8 DEB,1 04084U 69070C   23097.60188050  .00000213  00000-0  66600-4 0  9995,2 04084  74.0686 330.4864 0021671 164.1250 196.0592 14.46322538827066,1969-070C,4084,7115.822,99.563,753.108,722.266,0
GENERATED VIA SPACETRACK.ORG API,18 SPCS,4084,SL-8 DEB,DEBRIS,U,69070C,2023-04-08 02:03:55,965024,14.46322673,0.0021642,74.0685,329.5843,163.1159,197.0725,0,999,82713,6.1612e-05,1.95e-06,0,3883527,0 SL-8 DEB,1 04084U 69070C   23098.08606441  .00000195  00000-0  61612-4 0  9994,2 04084  74.0685 329.5843 0021642 163.1159 197.0725 14.46322673827133,1969-070C,4084,7115.821,99.563,753.087,722.286,0
GENERATED VIA SPACETRACK.ORG API,18 SPCS,4084,SL-8 DEB,DEBRIS,U,69070C,2023-04-09 01:18:22,917888,14.46323128,0.0021603,74.0682,327.7801,161.0247,199.1722,0,999,82725,5.9573e-05,1.87e-06,0,3883941,0 SL-8 DEB,1  4084U 69070C   23099.05443192  .00000187  00000-0  59573-4 0  9998,2  4084  74.0682 327.7801 0021603 161.0247 199.1722 14.46323128827255,1969-070C,4084,7115.82,99.563,753.057,722.313,0
GENERATED VIA SPACETRACK.ORG API,18 SPCS,4084,SL-8 DEB,DEBRIS,U,69070C,2023-04-09 01:18:22,917888,14.46323128,0.0021603,74.0682,327.7801,161.0247,199.1722,0,999,82727,5.9573e-05,1.87e-06,0,3884332,0 SL-8 DEB,1 04084U 69070C   23099.05443192  .00000187  00000-0  59573-4 0  9998,2 04084  74.0682 327.7801 0021603 161.0247 199.1722 14.46323128827277,1969-070C,4084,7115.82,99.563,753.057,722.313,0
GENERATED VIA SPACETRACK.ORG API,18 SPCS,4084,SL-8 DEB,DEBRIS,U,69070C,2023-04-09 21:13:37,428672,14.46323522,0.0021573,74.0681,326.2337,159.2303,200.9737,0,999,82739,5.8639e-05,1.84e-06,0,3884641,0 SL-8 DEB,1 04084U 69070C   23099.88446098  .00000184  00000-0  58639-4 0  9996,2 04084  74.0681 326.2337 0021573 159.2303 200.9737 14.46323522827390,1969-070C,4084,7115.819,99.563,753.035,722.333,0
GENERATED VIA SPACETRACK.ORG API,18 SPCS,4084,SL-8 DEB,DEBRIS,U,69070C,2023-04-10 02:12:26,56800,14.46323675,0.0021561,74.068,325.847,158.7824,201.4234,0,999,82742,6.1888e-05,1.96e-06,0,3885195,0 SL-8 DEB,1 04084U 69070C   23100.09196825  .00000196  00000-0  61888-4 0  9995,2 04084  74.0680 325.8470 0021561 158.7824 201.4234 14.46323675827422,1969-070C,4084,7115.818,99.563,753.026,722.341,0
GENERATED VIA SPACETRACK.ORG API,18 SPCS,4084,SL-8 DEB,DEBRIS,U,69070C,2023-04-10 22:07:40,537344,14.46324017,0.0021524,74.0679,324.3006,156.9996,203.2131,0,999,82754,5.8609e-05,1.84e-06,0,3885363,0 SL-8 DEB,1 04084U 69070C   23100.92199696  .00000184  00000-0  58609-4 0  9990,2 04084  74.0679 324.3006 0021524 156.9996 203.2131 14.46324017827548,1969-070C,4084,7115.817,99.563,752.998,722.366,0
GENERATED VIA SPACETRACK.ORG API,18 SPCS,4084,SL-8 DEB,DEBRIS,U,69070C,2023-04-11 01:26:52,950048,14.46324089,0.0021516,74.0678,324.0429,156.696,203.5179,0,999,82756,5.8769e-05,1.85e-06,0,3885783,0 SL-8 DEB,1 04084U 69070C   23101.06033507  .00000185  00000-0  58769-4 0  9992,2 04084  74.0678 324.0429 0021516 156.6960 203.5179 14.46324089827568,1969-070C,4084,7115.817,99.563,752.992,722.371,0
